{
  "norad_id": 39491,
  "name": "COSMOS 2494 (SKRL-756 2)",
  "history": [
    {
      "epoch": "2026-03-28T22:42:36.479520Z",
      "apogee_km": 565.5671948784857,
      "perigee_km": 541.3762962529863,
      "latitude_deg": 4.627561105705046e-05,
      "longitude_deg": 162.38480015531826,
      "height_km": 561.477131701653,
      "semi_major_axis_km": 6931.608745565735,
      "eccentricity": 0.00174497,
      "inclination_deg": 82.4143,
      "raan_deg": 329.3962,
      "arg_perigee_deg": 114.3212,
      "mean_anomaly_deg": 245.9839,
      "mean_motion_rev_day": 15.04359734
    },
    {
      "epoch": "2026-03-29T03:29:57.191712Z",
      "apogee_km": 565.5494774090885,
      "perigee_km": 541.3706804783169,
      "latitude_deg": 1.2728787501660647e-05,
      "longitude_deg": 90.15591416246589,
      "height_km": 561.3502014745312,
      "semi_major_axis_km": 6931.597078943702,
      "eccentricity": 0.0017441,
      "inclination_deg": 82.4143,
      "raan_deg": 329.2003,
      "arg_perigee_deg": 113.7373,
      "mean_anomaly_deg": 246.5685,
      "mean_motion_rev_day": 15.04363532
    }
  ]
}